[{"OBJECT_NAME":"STARLINK-3602","OBJECT_ID":"2022-017Z","EPOCH":"2026-03-09T22:01:53.824512","MEAN_MOTION":15.08872509,"ECCENTRICITY":0.00022315,"INCLINATION":53.2178,"RA_OF_ASC_NODE":348.0946,"ARG_OF_PERICENTER":86.7575,"MEAN_ANOMALY":273.3672,"EPHEMERIS_TYPE":0,"CLASSIFICATION_TYPE":"U","NORAD_CAT_ID":51791,"ELEMENT_SET_NO":999,"REV_AT_EPOCH":22395,"BSTAR":-0.0011195022,"MEAN_MOTION_DOT":-0.00018077,"MEAN_MOTION_DDOT":0},{"OBJECT_NAME":"CZ-11 DEB","OBJECT_ID":"2016-066F","EPOCH":"2026-03-09T05:15:50.748768","MEAN_MOTION":14.5419655,"ECCENTRICITY":0.03090358,"INCLINATION":98.4222,"RA_OF_ASC_NODE":157.5893,"ARG_OF_PERICENTER":51.3246,"MEAN_ANOMALY":311.5167,"EPHEMERIS_TYPE":0,"CLASSIFICATION_TYPE":"U","NORAD_CAT_ID":41846,"ELEMENT_SET_NO":999,"REV_AT_EPOCH":49051,"BSTAR":0.00051757733,"MEAN_MOTION_DOT":4.106e-5,"MEAN_MOTION_DDOT":0}]
